KUZGTU 1 (RS47S)        
1 57217U 23091AV  26166.59513132  .00010781  00000+0  37489-3 0  9997
2 57217  97.5067 231.0588 0012337 102.9075 257.3544 15.29831992164139
SONATE-2                
1 59112U 24043Q   26166.40491472  .00034026  00000+0  44395-3 0  9995
2 59112  97.5529 316.6914 0007009 201.6141 158.4820 15.58601060127615
MESAT1                  
1 60209U 24125G   26166.56984892  .00049760  00000+0  54559-3 0  9999
2 60209  97.2286  24.0156 0009428 209.2341 150.8391 15.63051730109317
OOV-CUBE (TUBSAT-30)    
1 60240U 24128F   26166.59161287  .00001776  00000+0  14516-3 0  9999
2 60240  61.9945 231.1374 0044790 133.3400 227.1438 15.02768887105877
COLIBRI-S (RS67S)       
1 61746U 24199M   26166.57476311  .00018687  00000+0  36286-3 0  9991
2 61746  97.2995  40.4148 0006273 287.0923  72.9640 15.47669217137161
HORS 3 (RS81S)          
1 61753U 24199U   26166.60934053  .00031368  00000+0  47018-3 0  9991
2 61753  97.2979  42.4191 0003721 288.0137  72.0711 15.54881177137310
HORS 4 (RS82S)          
1 61754U 24199V   26166.57467191  .00042362  00000+0  53278-3 0  9993
2 61754  97.2926  43.5749 0003037 269.4884  90.6025 15.59554792137393
SIT-2086                
1 61764U 24199AF  26166.58566734  .00031879  00000+0  51148-3 0  9993
2 61764  97.2936  42.8771 0004447 259.0875 100.9878 15.52993518134184
HYPERVIEW 1G (RS66S)    
1 61772U 24199AP  26166.60190755  .00120488  00000+0  78713-3 0  9993
2 61772  97.2877  46.2417 0003480 226.5941 133.5035 15.75482058134422
ALTAIR (RS65S)          
1 61779U 24199AW  26166.61461902  .00007696  00000+0  21444-3 0  9990
2 61779  97.3029  35.9762 0011274 317.6436  42.3937 15.37002848136870
ASRTU-1 (AO-123)        
1 61781U 24199AY  26166.60114316  .00006603  00000+0  19233-3 0  9996
2 61781  97.3000  35.2866 0012435 320.5786  39.4552 15.35656942133685
SAMSAT-IONOSPHERE (RS7*)
1 61784U 24199BB  26166.58177463  .00040071  00000+0  54414-3 0  9995
2 61784  97.2947  42.4319 0005855 284.7984  75.2622 15.57504956137310
RTU MIREA 1 (RS51S)     
1 61785U 24199BC  26166.60973207  .00046962  00000+0  55964-3 0  9995
2 61785  97.2934  43.2839 0005492 275.5841  84.4790 15.60939949134223
TEVEL2-4                
1 63213U 25052D   26166.16079356  .00014823  00000+0  44473-3 0  9999
2 63213  97.3913  62.5494 0004846 107.3580 252.8193 15.34549992 69809
TEVEL2-5                
1 63214U 25052E   26166.50714160  .00015702  00000+0  47332-3 0  9991
2 63214  97.3909  62.8448 0004755 107.9280 252.2482 15.34389584 69858
TEVEL2-6                
1 63215U 25052F   26166.45421808  .00014975  00000+0  45210-3 0  9994
2 63215  97.3915  62.7761 0004671 108.6521 251.5230 15.34350757 69848
TEVEL2-1                
1 63217U 25052H   26166.22168631  .00014089  00000+0  43283-3 0  9997
2 63217  97.3885  62.1701 0004698 117.4022 242.7699 15.33812138 69797
TEVEL2-3                
1 63218U 25052J   26166.21640006  .00014569  00000+0  44668-3 0  9999
2 63218  97.3890  62.1864 0004653 117.3895 242.7821 15.33867104 69792
TEVEL2-2                
1 63219U 25052K   26166.22201124  .00014328  00000+0  43999-3 0  9994
2 63219  97.3886  62.1729 0004671 117.7960 242.3756 15.33820586 69791
TEVEL2-9                
1 63237U 25052AD  26166.26221951  .00013263  00000+0  43321-3 0  9994
2 63237  97.3947  61.5923 0007638 136.2266 223.9582 15.31847587 69733
TEVEL2-7                
1 63238U 25052AE  26166.23742285  .00012882  00000+0  42471-3 0  9991
2 63238  97.3951  61.4847 0007732 136.5558 223.6294 15.31552974 69724
TEVEL2-8                
1 63239U 25052AF  26166.50699842  .00013370  00000+0  44078-3 0  9990
2 63239  97.3950  61.7304 0007754 136.5757 223.6096 15.31544661 69768
INNOSAT 16 (RS92S7)     
1 64878U 25155C   26166.55891593  .00004909  00000+0  19677-3 0  9991
2 64878  97.4562 133.6919 0010352 181.0933 179.0284 15.25442165 80426
GEOSCAN 6 (RS92S6)      
1 64879U 25155D   26166.61207312  .00008518  00000+0  29452-3 0  9991
2 64879  97.4555 135.1578 0008143 167.4045 192.7400 15.30126109 80520
GEOSCAN 1 (RS92S1)      
1 64880U 25155E   26166.61513305  .00009128  00000+0  30970-3 0  9990
2 64880  97.4552 135.3075 0008087 167.1433 193.0015 15.30719580 80536
239ALFEROV (RS61S)      
1 64881U 25155F   26166.58701928  .00012431  00000+0  39309-3 0  9993
2 64881  97.4552 135.8353 0007827 164.0551 196.0939 15.32903030 80567
GEOSCAN 2 (RS92S2)      
1 64890U 25155Q   26166.60909622  .00009274  00000+0  31198-3 0  9996
2 64890  97.4551 135.4533 0007937 154.0724 206.0916 15.30990500 80546
GEOSCAN 5 (RS92S5)      
1 64891U 25155R   26166.57637504  .00011860  00000+0  37159-3 0  9997
2 64891  97.4545 135.9615 0006518 167.5337 192.6068 15.33220893 80574
GEOSCAN 4 (RS92S4)      
1 64892U 25155S   26166.56072898  .00012141  00000+0  37848-3 0  9994
2 64892  97.4548 135.9936 0006581 167.2755 192.8655 15.33374261 80578
GEOSCAN 3 (RS92S3)      
1 64893U 25155T   26166.56357943  .00014368  00000+0  42030-3 0  9994
2 64893  97.4536 136.4215 0006525 165.4324 194.7108 15.35349050 80600
