OBJECT_NAME,OBJECT_ID,EPOCH,MEAN_MOTION,ECCENTRICITY,INCLINATION,RA_OF_ASC_NODE,ARG_OF_PERICENTER,MEAN_ANOMALY,EPHEMERIS_TYPE,CLASSIFICATION_TYPE,NORAD_CAT_ID,ELEMENT_SET_NO,REV_AT_EPOCH,BSTAR,MEAN_MOTION_DOT,MEAN_MOTION_DDOT
KUZGTU 1 (RS47S),2023-091AV,2026-06-15T14:16:59.346048,15.29831992,.00123373,97.5067,231.0588,102.9075,257.3544,0,U,57217,999,16413,.37488518E-3,.10781E-3,0
SONATE-2,2024-043Q,2026-06-15T09:43:04.631808,15.58601060,.00070097,97.5529,316.6914,201.6141,158.4820,0,U,59112,999,12761,.4439517E-3,.34026E-3,0
MESAT1,2024-125G,2026-06-15T13:40:34.946688,15.63051730,.00094286,97.2286,24.0156,209.2341,150.8391,0,U,60209,999,10931,.54558547E-3,.4976E-3,0
OOV-CUBE (TUBSAT-30),2024-128F,2026-06-15T14:11:55.351968,15.02768887,.00447908,61.9945,231.1374,133.3400,227.1438,0,U,60240,999,10587,.14515979E-3,.1776E-4,0
COLIBRI-S (RS67S),2024-199M,2026-06-15T13:47:39.532704,15.47669217,.00062739,97.2995,40.4148,287.0923,72.9640,0,U,61746,999,13716,.36285507E-3,.18687E-3,0
HORS 3 (RS81S),2024-199U,2026-06-15T14:37:27.021792,15.54881177,.00037212,97.2979,42.4191,288.0137,72.0711,0,U,61753,999,13731,.47018109E-3,.31368E-3,0
HORS 4 (RS82S),2024-199V,2026-06-15T13:47:31.653024,15.59554792,.00030377,97.2926,43.5749,269.4884,90.6025,0,U,61754,999,13739,.53278019E-3,.42362E-3,0
SIT-2086,2024-199AF,2026-06-15T14:03:21.658176,15.52993518,.00044474,97.2936,42.8771,259.0875,100.9878,0,U,61764,999,13418,.51147777E-3,.31879E-3,0
HYPERVIEW 1G (RS66S),2024-199AP,2026-06-15T14:26:44.812320,15.75482058,.00034805,97.2877,46.2417,226.5941,133.5035,0,U,61772,999,13442,.78712927E-3,.120488E-2,0
ALTAIR (RS65S),2024-199AW,2026-06-15T14:45:03.083328,15.37002848,.00112742,97.3029,35.9762,317.6436,42.3937,0,U,61779,999,13687,.21443892E-3,.7696E-4,0
ASRTU-1 (AO-123),2024-199AY,2026-06-15T14:25:38.769024,15.35656942,.00124359,97.3000,35.2866,320.5786,39.4552,0,U,61781,999,13368,.19232584E-3,.6603E-4,0
SAMSAT-IONOSPHERE (RS75S),2024-199BB,2026-06-15T13:57:45.328032,15.57504956,.00058557,97.2947,42.4319,284.7984,75.2622,0,U,61784,999,13731,.54414383E-3,.40071E-3,0
RTU MIREA 1 (RS51S),2024-199BC,2026-06-15T14:38:00.850848,15.60939949,.00054928,97.2934,43.2839,275.5841,84.4790,0,U,61785,999,13422,.55963618E-3,.46962E-3,0
TEVEL2-4,2025-052D,2026-06-15T03:51:32.563584,15.34549992,.00048464,97.3913,62.5494,107.3580,252.8193,0,U,63213,999,6980,.44472787E-3,.14823E-3,0
TEVEL2-5,2025-052E,2026-06-15T12:10:17.034240,15.34389584,.00047559,97.3909,62.8448,107.9280,252.2482,0,U,63214,999,6985,.4733208E-3,.15702E-3,0
TEVEL2-6,2025-052F,2026-06-15T10:54:04.442112,15.34350757,.0004671,97.3915,62.7761,108.6521,251.5230,0,U,63215,999,6984,.45209659E-3,.14975E-3,0
TEVEL2-1,2025-052H,2026-06-15T05:19:13.697184,15.33812138,.0004698,97.3885,62.1701,117.4022,242.7699,0,U,63217,999,6979,.43283E-3,.14089E-3,0
TEVEL2-3,2025-052J,2026-06-15T05:11:36.965184,15.33867104,.0004653,97.3890,62.1864,117.3895,242.7821,0,U,63218,999,6979,.44668E-3,.14569E-3,0
TEVEL2-2,2025-052K,2026-06-15T05:19:41.771136,15.33820586,.0004671,97.3886,62.1729,117.7960,242.3756,0,U,63219,999,6979,.43999E-3,.14328E-3,0
TEVEL2-9,2025-052AD,2026-06-15T06:17:35.765664,15.31847587,.0007638,97.3947,61.5923,136.2266,223.9582,0,U,63237,999,6973,.43321E-3,.13263E-3,0
TEVEL2-7,2025-052AE,2026-06-15T05:41:53.334240,15.31552974,.0007732,97.3951,61.4847,136.5558,223.6294,0,U,63238,999,6972,.42471E-3,.12882E-3,0
TEVEL2-8,2025-052AF,2026-06-15T12:10:04.663488,15.31544661,.0007754,97.3950,61.7304,136.5757,223.6096,0,U,63239,999,6976,.44078135E-3,.1337E-3,0
INNOSAT 16 (RS92S7),2025-155C,2026-06-15T13:24:50.336352,15.25442165,.0010352,97.4562,133.6919,181.0933,179.0284,0,U,64878,999,8042,.196771E-3,.4909E-4,0
GEOSCAN 6 (RS92S6),2025-155D,2026-06-15T14:41:23.117568,15.30126109,.00081431,97.4555,135.1578,167.4045,192.7400,0,U,64879,999,8052,.2945234E-3,.8518E-4,0
GEOSCAN 1 (RS92S1),2025-155E,2026-06-15T14:45:47.495520,15.30719580,.00080872,97.4552,135.3075,167.1433,193.0015,0,U,64880,999,8053,.30969537E-3,.9128E-4,0
239ALFEROV (RS61S),2025-155F,2026-06-15T14:05:18.465792,15.32903030,.0007827,97.4552,135.8353,164.0551,196.0939,0,U,64881,999,8056,.39308673E-3,.12431E-3,0
GEOSCAN 2 (RS92S2),2025-155Q,2026-06-15T14:37:05.913408,15.30990500,.00079372,97.4551,135.4533,154.0724,206.0916,0,U,64890,999,8054,.31198284E-3,.9274E-4,0
GEOSCAN 5 (RS92S5),2025-155R,2026-06-15T13:49:58.803456,15.33220893,.00065185,97.4545,135.9615,167.5337,192.6068,0,U,64891,999,8057,.3715911E-3,.1186E-3,0
GEOSCAN 4 (RS92S4),2025-155S,2026-06-15T13:27:26.983872,15.33374261,.00065817,97.4548,135.9936,167.2755,192.8655,0,U,64892,999,8057,.37848021E-3,.12141E-3,0
GEOSCAN 3 (RS92S3),2025-155T,2026-06-15T13:31:33.262752,15.35349050,.00065253,97.4536,136.4215,165.4324,194.7108,0,U,64893,999,8060,.42029636E-3,.14368E-3,0
